OBJECT_NAME,OBJECT_ID,EPOCH,MEAN_MOTION,ECCENTRICITY,INCLINATION,RA_OF_ASC_NODE,ARG_OF_PERICENTER,MEAN_ANOMALY,EPHEMERIS_TYPE,CLASSIFICATION_TYPE,NORAD_CAT_ID,ELEMENT_SET_NO,REV_AT_EPOCH,BSTAR,MEAN_MOTION_DOT,MEAN_MOTION_DDOT
ONEWEB-0598,2023-004Q,2026-05-11T03:45:08.061120,13.11418898,.0001298,87.8919,28.4345,59.3165,300.8091,0,U,55154,999,16104,.17696E-2,.64E-5,0
ONEWEB-0599,2023-004R,2026-05-11T02:52:42.170592,13.17649805,.00018357,87.9169,13.2335,74.4761,285.6573,0,U,55155,999,16260,.38855243E-4,.28E-6,0
ONEWEB-0614,2023-004S,2026-05-11T03:37:46.642656,13.11420498,.0001865,87.8920,28.4440,85.9329,274.2012,0,U,55156,999,16098,.10278E-2,.377E-5,0
ONEWEB-0616,2023-004T,2026-05-11T03:53:27.135168,13.17648532,.0002395,87.9169,13.2277,61.6564,298.4809,0,U,55157,999,16282,.54249E-4,.34E-6,0
ONEWEB-0617,2023-004U,2026-05-11T03:20:40.228800,13.11417537,.0001816,87.8926,28.4356,93.9952,266.1384,0,U,55158,999,16100,-.11859E-2,-.408E-5,0
ONEWEB-0618,2023-004V,2026-05-11T03:40:06.690144,15.12846415,.0015133,86.9135,192.6606,76.0435,284.2486,0,U,55159,999,17666,.17562059E-3,.3127E-4,0
ONEWEB-0619,2023-004W,2026-05-11T04:39:37.107936,13.17648176,.0002218,87.9178,13.1992,86.3783,273.7602,0,U,55160,999,16272,.1418E-3,.68E-6,0
ONEWEB-0620,2023-004X,2026-05-11T03:13:20.999712,13.11417536,.00015558,87.8921,28.4472,80.1859,279.9444,0,U,55161,999,16097,-.14849623E-2,-.514E-5,0
ONEWEB-0621,2023-004Y,2026-05-11T03:52:25.248576,13.11419226,.0001927,87.8927,28.4272,86.7404,273.3944,0,U,55162,999,16095,.16254E-2,.589E-5,0
ONEWEB-0622,2023-004Z,2026-05-11T03:59:44.956320,13.11418606,.0001629,87.8930,28.4283,104.1788,255.9521,0,U,55163,999,16094,.1619E-2,.587E-5,0
ONEWEB-0623,2023-004AA,2026-05-11T04:32:19.415040,13.17649777,.0002199,87.9165,13.2350,101.6882,258.4496,0,U,55164,999,16271,.16046E-3,.75E-6,0
ONEWEB-0624,2023-004AB,2026-05-11T03:46:30.967104,13.12927230,.0001844,87.8972,357.9542,88.4969,271.6371,0,U,55165,999,16321,.10242E-2,.384E-5,0
ONEWEB-0625,2023-004AC,2026-05-11T04:17:45.104928,13.17648018,.0001936,87.9167,13.2316,78.6284,281.5065,0,U,55166,999,16270,.12579E-3,.62E-6,0
ONEWEB-0626,2023-004AD,2026-05-11T04:03:09.554976,13.17649805,.0001412,87.9167,13.2334,75.6229,284.5059,0,U,55167,999,16270,-.28922E-3,-.99E-6,0
ONEWEB-0627,2023-004AE,2026-05-11T03:46:09.584832,13.17649964,.0002038,87.9169,13.2361,96.3320,263.8044,0,U,55168,999,16270,.40587E-4,.29E-6,0
ONEWEB-0628,2023-004AF,2026-05-11T03:00:03.623616,13.12443146,.0002239,87.8975,358.0212,98.9870,261.1513,0,U,55169,999,16317,-.14994742E-2,-.527E-5,0
ONEWEB-0629,2023-004AG,2026-05-11T03:10:55.792416,13.17649053,.00021176,87.9169,13.2375,84.2487,275.8885,0,U,55170,999,16270,.27163632E-4,.23E-6,0
ONEWEB-0631,2023-004AH,2026-05-11T01:46:13.194912,13.18686515,.0001373,87.9183,342.8203,95.6942,264.4346,0,U,55171,999,16478,.88293E-4,.48E-6,0
ONEWEB-0709,2023-004AJ,2026-05-11T02:58:42.730752,13.11416794,.00011439,87.8917,28.4513,55.0350,305.0886,0,U,55172,999,16101,-.17075393E-2,-.592E-5,0
ONEWEB-0710,2023-004AK,2026-05-11T03:31:35.093280,13.17648687,.0001795,87.9170,13.2295,87.2923,272.8414,0,U,55173,999,16270,-.72805E-4,-.15E-6,0
ONEWEB-0711,2023-004AL,2026-05-11T04:07:05.735424,13.11413605,.0001975,87.8918,28.4286,102.3134,257.8215,0,U,55174,999,16098,.12929E-2,.471E-5,0
ONEWEB-0713,2023-004AM,2026-05-11T04:33:55.282752,13.11414449,.0001854,87.8924,28.4258,92.6976,267.4364,0,U,55175,999,16097,-.12837E-2,-.442E-5,0
ONEWEB-0715,2023-004AN,2026-05-11T04:26:36.013056,13.11414598,.0001099,87.8928,28.4273,76.8386,283.2864,0,U,55176,999,16101,-.55603E-3,-.184E-5,0
ONEWEB-0716,2023-004AP,2026-05-11T03:21:51.839712,13.17648755,.0001944,87.9170,13.2329,75.5704,284.5643,0,U,55177,999,16270,.42008E-4,.29E-6,0
ONEWEB-0717,2023-004AQ,2026-05-11T02:57:33.775776,13.17649939,.00018204,87.9181,13.2209,103.9030,256.2305,0,U,55178,999,16275,-.7610714E-5,.1E-6,0
ONEWEB-0719,2023-004AR,2026-05-11T03:12:08.647488,13.17648304,.00019901,87.9181,13.1993,78.2054,281.9301,0,U,55179,999,16270,.14888258E-3,.71E-6,0
APSTAR-6E,2023-005A,2026-05-10T17:01:19.829856,1.00272511,.00004775,0.0152,238.7778,312.5476,66.5317,0,U,55239,999,1831,0,-.308E-5,0
YAOGAN-37,2023-006C,2026-05-11T00:19:56.691840,15.16841432,.00163,43.1989,328.5769,141.4861,218.7156,0,U,55244,999,18423,.19474E-3,.3672E-4,0
LINUSS1,2022-144G,2026-05-10T20:01:00.032160,0.99053038,.00112185,5.2895,64.4462,306.0962,202.5109,0,U,55246,999,1129,0,.68E-6,0
LINUSS2,2022-144H,2026-05-09T21:44:38.044896,0.99050322,.0009125,5.2870,64.4469,310.5930,217.1546,0,U,55247,999,1133,0,.44E-6,0
USA 342,2023-008A,2026-05-10T06:13:52.958208,1.00267012,.0000101,0.0015,91.2458,60.8845,193.2091,0,U,55263,999,1213,0,0,0
